[{"OBJECT_NAME":"ISS OBJECT XZ","OBJECT_ID":"1998-067XZ","EPOCH":"2026-03-02T13:52:19.955136","MEAN_MOTION":15.51179573,"ECCENTRICITY":0.000952,"INCLINATION":51.6313,"RA_OF_ASC_NODE":107.1702,"ARG_OF_PERICENTER":162.1984,"MEAN_ANOMALY":197.9341,"EPHEMERIS_TYPE":0,"CLASSIFICATION_TYPE":"U","NORAD_CAT_ID":67683,"ELEMENT_SET_NO":999,"REV_AT_EPOCH":368,"BSTAR":0.00070185,"MEAN_MOTION_DOT":0.00041593,"MEAN_MOTION_DDOT":0},{"OBJECT_NAME":"GXIBA-1","OBJECT_ID":"1998-067YA","EPOCH":"2026-03-02T11:54:46.036224","MEAN_MOTION":15.53047483,"ECCENTRICITY":0.00110442,"INCLINATION":51.63,"RA_OF_ASC_NODE":107.375,"ARG_OF_PERICENTER":152.32,"MEAN_ANOMALY":207.838,"EPHEMERIS_TYPE":0,"CLASSIFICATION_TYPE":"U","NORAD_CAT_ID":67684,"ELEMENT_SET_NO":999,"REV_AT_EPOCH":367,"BSTAR":0.0011883441,"MEAN_MOTION_DOT":0.00076064,"MEAN_MOTION_DDOT":0},{"OBJECT_NAME":"CORAL","OBJECT_ID":"1998-067YB","EPOCH":"2026-03-02T09:09:48.620736","MEAN_MOTION":15.51449802,"ECCENTRICITY":0.00115824,"INCLINATION":51.6315,"RA_OF_ASC_NODE":108.1094,"ARG_OF_PERICENTER":157.7573,"MEAN_ANOMALY":202.3921,"EPHEMERIS_TYPE":0,"CLASSIFICATION_TYPE":"U","NORAD_CAT_ID":67685,"ELEMENT_SET_NO":999,"REV_AT_EPOCH":365,"BSTAR":0.00077682183,"MEAN_MOTION_DOT":0.00046607,"MEAN_MOTION_DDOT":0},{"OBJECT_NAME":"ISS OBJECT YC","OBJECT_ID":"1998-067YC","EPOCH":"2026-03-02T09:04:58.356480","MEAN_MOTION":15.51837466,"ECCENTRICITY":0.00077178,"INCLINATION":51.6316,"RA_OF_ASC_NODE":108.0894,"ARG_OF_PERICENTER":125.5885,"MEAN_ANOMALY":234.5825,"EPHEMERIS_TYPE":0,"CLASSIFICATION_TYPE":"U","NORAD_CAT_ID":67686,"ELEMENT_SET_NO":999,"REV_AT_EPOCH":365,"BSTAR":0.00085444662,"MEAN_MOTION_DOT":0.00051991,"MEAN_MOTION_DDOT":0},{"OBJECT_NAME":"LEOPARD","OBJECT_ID":"1998-067YD","EPOCH":"2026-03-02T15:22:46.244928","MEAN_MOTION":15.51318584,"ECCENTRICITY":0.0007695,"INCLINATION":51.6316,"RA_OF_ASC_NODE":106.8408,"ARG_OF_PERICENTER":130.3148,"MEAN_ANOMALY":229.8515,"EPHEMERIS_TYPE":0,"CLASSIFICATION_TYPE":"U","NORAD_CAT_ID":67687,"ELEMENT_SET_NO":999,"REV_AT_EPOCH":361,"BSTAR":0.00069517,"MEAN_MOTION_DOT":0.00041373,"MEAN_MOTION_DDOT":0},{"OBJECT_NAME":"ISS OBJECT YE","OBJECT_ID":"1998-067YE","EPOCH":"2026-03-02T12:12:35.467776","MEAN_MOTION":15.51667522,"ECCENTRICITY":0.00076399,"INCLINATION":51.6317,"RA_OF_ASC_NODE":107.4591,"ARG_OF_PERICENTER":126.6437,"MEAN_ANOMALY":233.5256,"EPHEMERIS_TYPE":0,"CLASSIFICATION_TYPE":"U","NORAD_CAT_ID":67688,"ELEMENT_SET_NO":999,"REV_AT_EPOCH":359,"BSTAR":0.00083945719,"MEAN_MOTION_DOT":0.0005075,"MEAN_MOTION_DDOT":0},{"OBJECT_NAME":"PRC TEST SPACECRAFT 4","OBJECT_ID":"2026-024A","EPOCH":"2026-03-02T19:03:49.541760","MEAN_MOTION":14.91681754,"ECCENTRICITY":0.0006129,"INCLINATION":49.9857,"RA_OF_ASC_NODE":55.1399,"ARG_OF_PERICENTER":333.6192,"MEAN_ANOMALY":26.4437,"EPHEMERIS_TYPE":0,"CLASSIFICATION_TYPE":"U","NORAD_CAT_ID":67689,"ELEMENT_SET_NO":999,"REV_AT_EPOCH":355,"BSTAR":3.9313e-5,"MEAN_MOTION_DOT":1.56e-6,"MEAN_MOTION_DDOT":0},{"OBJECT_NAME":"CZ-2F R/B","OBJECT_ID":"2026-024B","EPOCH":"2026-03-02T19:10:27.028416","MEAN_MOTION":15.34014643,"ECCENTRICITY":0.0175176,"INCLINATION":49.9874,"RA_OF_ASC_NODE":49.1507,"ARG_OF_PERICENTER":246.318,"MEAN_ANOMALY":111.9311,"EPHEMERIS_TYPE":0,"CLASSIFICATION_TYPE":"U","NORAD_CAT_ID":67690,"ELEMENT_SET_NO":999,"REV_AT_EPOCH":363,"BSTAR":0.00036346,"MEAN_MOTION_DOT":0.00019734,"MEAN_MOTION_DDOT":0},{"OBJECT_NAME":"CZ-2F DEB","OBJECT_ID":"2026-024C","EPOCH":"2026-03-02T18:54:47.730816","MEAN_MOTION":15.92041953,"ECCENTRICITY":0.0166912,"INCLINATION":49.9036,"RA_OF_ASC_NODE":41.9445,"ARG_OF_PERICENTER":259.9076,"MEAN_ANOMALY":98.304,"EPHEMERIS_TYPE":0,"CLASSIFICATION_TYPE":"U","NORAD_CAT_ID":67691,"ELEMENT_SET_NO":999,"REV_AT_EPOCH":371,"BSTAR":0.00077466,"MEAN_MOTION_DOT":0.01085238,"MEAN_MOTION_DDOT":1.0839e-5},{"OBJECT_NAME":"CZ-2F DEB","OBJECT_ID":"2026-024D","EPOCH":"2026-03-02T18:58:52.120992","MEAN_MOTION":15.22351784,"ECCENTRICITY":0.0241891,"INCLINATION":50.3176,"RA_OF_ASC_NODE":52.532,"ARG_OF_PERICENTER":252.9342,"MEAN_ANOMALY":104.4991,"EPHEMERIS_TYPE":0,"CLASSIFICATION_TYPE":"U","NORAD_CAT_ID":67692,"ELEMENT_SET_NO":999,"REV_AT_EPOCH":357,"BSTAR":0.004066,"MEAN_MOTION_DOT":0.00223382,"MEAN_MOTION_DDOT":0},{"OBJECT_NAME":"STARLINK-36748","OBJECT_ID":"2026-025A","EPOCH":"2026-03-02T17:52:02.639136","MEAN_MOTION":15.75251598,"ECCENTRICITY":3.45e-5,"INCLINATION":97.2849,"RA_OF_ASC_NODE":172.9335,"ARG_OF_PERICENTER":342.8924,"MEAN_ANOMALY":17.233,"EPHEMERIS_TYPE":0,"CLASSIFICATION_TYPE":"U","NORAD_CAT_ID":67693,"ELEMENT_SET_NO":999,"REV_AT_EPOCH":484,"BSTAR":0.0015695,"MEAN_MOTION_DOT":0.00241363,"MEAN_MOTION_DDOT":0},{"OBJECT_NAME":"STARLINK-36753","OBJECT_ID":"2026-025B","EPOCH":"2026-03-02T19:12:21.692448","MEAN_MOTION":15.75208568,"ECCENTRICITY":0.0003743,"INCLINATION":97.285,"RA_OF_ASC_NODE":173.0102,"ARG_OF_PERICENTER":90.8193,"MEAN_ANOMALY":269.3502,"EPHEMERIS_TYPE":0,"CLASSIFICATION_TYPE":"U","NORAD_CAT_ID":67694,"ELEMENT_SET_NO":999,"REV_AT_EPOCH":486,"BSTAR":0.0017008,"MEAN_MOTION_DOT":0.00261739,"MEAN_MOTION_DDOT":0},{"OBJECT_NAME":"STARLINK-36750","OBJECT_ID":"2026-025C","EPOCH":"2026-03-02T18:42:49.267296","MEAN_MOTION":15.81369137,"ECCENTRICITY":0.0001361,"INCLINATION":97.2839,"RA_OF_ASC_NODE":173.0393,"ARG_OF_PERICENTER":108.8454,"MEAN_ANOMALY":251.2962,"EPHEMERIS_TYPE":0,"CLASSIFICATION_TYPE":"U","NORAD_CAT_ID":67695,"ELEMENT_SET_NO":999,"REV_AT_EPOCH":485,"BSTAR":0.0024089,"MEAN_MOTION_DOT":0.00501322,"MEAN_MOTION_DDOT":0},{"OBJECT_NAME":"STARLINK-36401","OBJECT_ID":"2026-025D","EPOCH":"2026-03-02T20:00:01.999008","MEAN_MOTION":15.75195901,"ECCENTRICITY":0.0001172,"INCLINATION":97.2854,"RA_OF_ASC_NODE":173.0787,"ARG_OF_PERICENTER":85.0549,"MEAN_ANOMALY":180.707,"EPHEMERIS_TYPE":0,"CLASSIFICATION_TYPE":"U","NORAD_CAT_ID":67696,"ELEMENT_SET_NO":999,"REV_AT_EPOCH":475,"BSTAR":0.00012869,"MEAN_MOTION_DOT":0.00019113,"MEAN_MOTION_DDOT":0},{"OBJECT_NAME":"STARLINK-36704","OBJECT_ID":"2026-025E","EPOCH":"2026-03-02T19:09:18.603936","MEAN_MOTION":15.75350826,"ECCENTRICITY":0.0001988,"INCLINATION":97.2849,"RA_OF_ASC_NODE":173.0123,"ARG_OF_PERICENTER":40.8064,"MEAN_ANOMALY":319.3349,"EPHEMERIS_TYPE":0,"CLASSIFICATION_TYPE":"U","NORAD_CAT_ID":67697,"ELEMENT_SET_NO":999,"REV_AT_EPOCH":485,"BSTAR":0.002689,"MEAN_MOTION_DOT":0.00424488,"MEAN_MOTION_DDOT":0},{"OBJECT_NAME":"STARLINK-36697","OBJECT_ID":"2026-025F","EPOCH":"2026-03-02T20:04:49.692000","MEAN_MOTION":15.80826232,"ECCENTRICITY":0.0001085,"INCLINATION":97.2847,"RA_OF_ASC_NODE":173.114,"ARG_OF_PERICENTER":93.6456,"MEAN_ANOMALY":266.4937,"EPHEMERIS_TYPE":0,"CLASSIFICATION_TYPE":"U","NORAD_CAT_ID":67698,"ELEMENT_SET_NO":999,"REV_AT_EPOCH":486,"BSTAR":0.0018888,"MEAN_MOTION_DOT":0.00377975,"MEAN_MOTION_DDOT":0},{"OBJECT_NAME":"STARLINK-36716","OBJECT_ID":"2026-025G","EPOCH":"2026-03-02T20:02:20.006592","MEAN_MOTION":15.80913687,"ECCENTRICITY":0.0001206,"INCLINATION":97.2843,"RA_OF_ASC_NODE":173.1167,"ARG_OF_PERICENTER":116.8811,"MEAN_ANOMALY":243.2581,"EPHEMERIS_TYPE":0,"CLASSIFICATION_TYPE":"U","NORAD_CAT_ID":67699,"ELEMENT_SET_NO":999,"REV_AT_EPOCH":487,"BSTAR":0.0012978,"MEAN_MOTION_DOT":0.00257064,"MEAN_MOTION_DDOT":0}]
