ISS OBJECT XZ           
1 67683U 98067XZ  26061.57800874  .00041593  00000+0  70185-3 0  9999
2 67683  51.6313 107.1702 0009520 162.1984 197.9341 15.51179573  3681
GXIBA-1                 
1 67684U 98067YA  26061.49636616  .00076064  00000+0  11883-2 0  9992
2 67684  51.6300 107.3750 0011044 152.3200 207.8380 15.53047483  3678
CORAL                   
1 67685U 98067YB  26061.38181274  .00046607  00000+0  77682-3 0  9996
2 67685  51.6315 108.1094 0011582 157.7573 202.3921 15.51449802  3652
ISS OBJECT YC           
1 67686U 98067YC  26061.37845320  .00051991  00000+0  85445-3 0  9993
2 67686  51.6316 108.0894 0007717 125.5885 234.5825 15.51837466  3652
LEOPARD                 
1 67687U 98067YD  26061.64081302  .00041373  00000+0  69517-3 0  9991
2 67687  51.6316 106.8408 0007695 130.3148 229.8515 15.51318584  3615
ISS OBJECT YE           
1 67688U 98067YE  26061.50874384  .00050750  00000+0  83946-3 0  9998
2 67688  51.6317 107.4591 0007639 126.6437 233.5256 15.51667522  3594
PRC TEST SPACECRAFT 4   
1 67689U 26024A   26061.79432340  .00000156  00000+0  39313-4 0  9991
2 67689  49.9857  55.1399 0006129 333.6192  26.4437 14.91681754  3552
CZ-2F R/B               
1 67690U 26024B   26061.79892394  .00019734  00000+0  36346-3 0  9996
2 67690  49.9874  49.1507 0175176 246.3180 111.9311 15.34014643  3638
CZ-2F DEB               
1 67691U 26024C   26061.78805244  .01085238  10839-4  77466-3 0  9991
2 67691  49.9036  41.9445 0166912 259.9076  98.3040 15.92041953  3716
CZ-2F DEB               
1 67692U 26024D   26061.79088103  .00223382  00000+0  40660-2 0  9992
2 67692  50.3176  52.5320 0241891 252.9342 104.4991 15.22351784  3574
STARLINK-36748          
1 67693U 26025A   26061.74447499  .00241363  00000+0  15695-2 0  9995
2 67693  97.2849 172.9335 0000345 342.8924  17.2330 15.75251598  4846
STARLINK-36753          
1 67694U 26025B   26061.80025107  .00261739  00000+0  17008-2 0  9990
2 67694  97.2850 173.0102 0003743  90.8193 269.3502 15.75208568  4868
STARLINK-36750          
1 67695U 26025C   26061.77973689  .00501322  00000+0  24089-2 0  9996
2 67695  97.2839 173.0393 0001361 108.8454 251.2962 15.81369137  4858
STARLINK-36401          
1 67696U 26025D   26061.83335647  .00019113  00000+0  12869-3 0  9996
2 67696  97.2854 173.0787 0001172  85.0549 180.7070 15.75195901  4758
STARLINK-36704          
1 67697U 26025E   26061.79813199  .00424488  00000+0  26890-2 0  9998
2 67697  97.2849 173.0123 0001988  40.8064 319.3349 15.75350826  4852
STARLINK-36697          
1 67698U 26025F   26061.83668625  .00377975  00000+0  18888-2 0  9992
2 67698  97.2847 173.1140 0001085  93.6456 266.4937 15.80826232  4861
STARLINK-36716          
1 67699U 26025G   26061.83495378  .00257064  00000+0  12978-2 0  9996
2 67699  97.2843 173.1167 0001206 116.8811 243.2581 15.80913687  4875
